{
 "generated_at": "2026-07-18T07:00:39Z",
 "sources": [
  {
   "name": "CelesTrak",
   "url": "https://celestrak.org/NORAD/elements/",
   "license": "frei verfügbar; Attribution. Ursprünglich USSPACECOM/Space-Track."
  },
  {
   "name": "GCAT (J. McDowell, planet4589.org)",
   "url": "https://planet4589.org/space/gcat/",
   "license": "CC-BY 4.0"
  }
 ],
 "satellites": [
  {
   "norad": 32376,
   "name": "COSMO-SKYMED 2",
   "intl": "2007-059A",
   "group": "resource",
   "gcat": {
    "class": "D",
    "category": "IMG-R",
    "owner": "ASI",
    "state": "I"
   },
   "omm": {
    "OBJECT_NAME": "COSMO-SKYMED 2",
    "OBJECT_ID": "2007-059A",
    "EPOCH": "2026-07-17T22:42:01.768320",
    "MEAN_MOTION": 14.82151728,
    "ECCENTRICITY": 0.0001456,
    "INCLINATION": 97.8896,
    "RA_OF_ASC_NODE": 22.099,
    "ARG_OF_PERICENTER": 93.8789,
    "MEAN_ANOMALY": 266.2591,
    "EPHEMERIS_TYPE": 0,
    "CLASSIFICATION_TYPE": "U",
    "NORAD_CAT_ID": 32376,
    "ELEMENT_SET_NO": 999,
    "REV_AT_EPOCH": 656,
    "BSTAR": 0.000025277211,
    "MEAN_MOTION_DOT": 0.00000149,
    "MEAN_MOTION_DDOT": 0
   }
  },
  {
   "norad": 33412,
   "name": "COSMO-SKYMED 3",
   "intl": "2008-054A",
   "group": "resource",
   "gcat": {
    "class": null,
    "category": null,
    "owner": null,
    "state": null
   },
   "omm": {
    "OBJECT_NAME": "COSMO-SKYMED 3",
    "OBJECT_ID": "2008-054A",
    "EPOCH": "2026-07-17T22:49:43.851072",
    "MEAN_MOTION": 15.07128915,
    "ECCENTRICITY": 0.00159603,
    "INCLINATION": 97.8244,
    "RA_OF_ASC_NODE": 58.0301,
    "ARG_OF_PERICENTER": 157.3808,
    "MEAN_ANOMALY": 202.8126,
    "EPHEMERIS_TYPE": 0,
    "CLASSIFICATION_TYPE": "U",
    "NORAD_CAT_ID": 33412,
    "ELEMENT_SET_NO": 999,
    "REV_AT_EPOCH": 96157,
    "BSTAR": 0.00018396075,
    "MEAN_MOTION_DOT": 0.00002705,
    "MEAN_MOTION_DDOT": 0
   }
  },
  {
   "norad": 37216,
   "name": "COSMO-SKYMED 4",
   "intl": "2010-060A",
   "group": "resource",
   "gcat": {
    "class": "D",
    "category": "IMG-R",
    "owner": "ASI",
    "state": "I"
   },
   "omm": {
    "OBJECT_NAME": "COSMO-SKYMED 4",
    "OBJECT_ID": "2010-060A",
    "EPOCH": "2026-07-17T23:00:16.082208",
    "MEAN_MOTION": 14.82151545,
    "ECCENTRICITY": 0.00015407,
    "INCLINATION": 97.8891,
    "RA_OF_ASC_NODE": 22.1129,
    "ARG_OF_PERICENTER": 84.6189,
    "MEAN_ANOMALY": 275.52,
    "EPHEMERIS_TYPE": 0,
    "CLASSIFICATION_TYPE": "U",
    "NORAD_CAT_ID": 37216,
    "ELEMENT_SET_NO": 999,
    "REV_AT_EPOCH": 84912,
    "BSTAR": 0.000057550629,
    "MEAN_MOTION_DOT": 0.00000406,
    "MEAN_MOTION_DDOT": 0
   }
  },
  {
   "norad": 44873,
   "name": "CSG-1",
   "intl": "2019-092A",
   "group": "resource",
   "gcat": {
    "class": "D",
    "category": "IMG-R",
    "owner": "MDDI/ASI",
    "state": "I"
   },
   "omm": {
    "OBJECT_NAME": "CSG-1",
    "OBJECT_ID": "2019-092A",
    "EPOCH": "2026-07-17T23:18:30.597408",
    "MEAN_MOTION": 14.82158104,
    "ECCENTRICITY": 0.00014316,
    "INCLINATION": 97.8897,
    "RA_OF_ASC_NODE": 22.1293,
    "ARG_OF_PERICENTER": 95.0987,
    "MEAN_ANOMALY": 265.039,
    "EPHEMERIS_TYPE": 0,
    "CLASSIFICATION_TYPE": "U",
    "NORAD_CAT_ID": 44873,
    "ELEMENT_SET_NO": 999,
    "REV_AT_EPOCH": 35603,
    "BSTAR": 0.000025086049,
    "MEAN_MOTION_DOT": 0.00000147,
    "MEAN_MOTION_DDOT": 0
   }
  },
  {
   "norad": 51444,
   "name": "CSG-2",
   "intl": "2022-008A",
   "group": "resource",
   "gcat": {
    "class": "D",
    "category": "IMG-R",
    "owner": "MDDI/ASI",
    "state": "I"
   },
   "omm": {
    "OBJECT_NAME": "CSG-2",
    "OBJECT_ID": "2022-008A",
    "EPOCH": "2026-07-17T22:29:52.031328",
    "MEAN_MOTION": 14.82174923,
    "ECCENTRICITY": 0.00016152,
    "INCLINATION": 97.889,
    "RA_OF_ASC_NODE": 22.0895,
    "ARG_OF_PERICENTER": 89.7164,
    "MEAN_ANOMALY": 270.4234,
    "EPHEMERIS_TYPE": 0,
    "CLASSIFICATION_TYPE": "U",
    "NORAD_CAT_ID": 51444,
    "ELEMENT_SET_NO": 999,
    "REV_AT_EPOCH": 24114,
    "BSTAR": -0.00013122433,
    "MEAN_MOTION_DOT": -0.00001097,
    "MEAN_MOTION_DDOT": 0
   }
  },
  {
   "norad": 67304,
   "name": "CSG-3",
   "intl": "2026-001A",
   "group": "resource",
   "gcat": {
    "class": "D",
    "category": "IMG-R",
    "owner": "MDDI/ASI",
    "state": "I"
   },
   "omm": {
    "OBJECT_NAME": "CSG-3",
    "OBJECT_ID": "2026-001A",
    "EPOCH": "2026-07-17T21:59:32.684928",
    "MEAN_MOTION": 14.82152966,
    "ECCENTRICITY": 0.00015273,
    "INCLINATION": 97.8897,
    "RA_OF_ASC_NODE": 22.0743,
    "ARG_OF_PERICENTER": 93.4423,
    "MEAN_ANOMALY": 266.6964,
    "EPHEMERIS_TYPE": 0,
    "CLASSIFICATION_TYPE": "U",
    "NORAD_CAT_ID": 67304,
    "ELEMENT_SET_NO": 999,
    "REV_AT_EPOCH": 2901,
    "BSTAR": 0.000019802122,
    "MEAN_MOTION_DOT": 0.00000105,
    "MEAN_MOTION_DDOT": 0
   }
  },
  {
   "norad": 41887,
   "name": "CYGFM01",
   "intl": "2016-078D",
   "group": "weather",
   "gcat": {
    "class": "C",
    "category": "EOSCI",
    "owner": "LARCN/SWRIB",
    "state": "US"
   },
   "omm": {
    "OBJECT_NAME": "CYGFM01",
    "OBJECT_ID": "2016-078D",
    "EPOCH": "2026-07-17T22:10:34.967712",
    "MEAN_MOTION": 15.58661886,
    "ECCENTRICITY": 0.00054307,
    "INCLINATION": 34.94,
    "RA_OF_ASC_NODE": 57.6492,
    "ARG_OF_PERICENTER": 58.6264,
    "MEAN_ANOMALY": 301.4992,
    "EPHEMERIS_TYPE": 0,
    "CLASSIFICATION_TYPE": "U",
    "NORAD_CAT_ID": 41887,
    "ELEMENT_SET_NO": 999,
    "REV_AT_EPOCH": 53350,
    "BSTAR": 0.00020779926,
    "MEAN_MOTION_DOT": 0.00016499,
    "MEAN_MOTION_DDOT": 0
   }
  },
  {
   "norad": 41886,
   "name": "CYGFM02",
   "intl": "2016-078C",
   "group": "weather",
   "gcat": {
    "class": "C",
    "category": "EOSCI",
    "owner": "LARCN/SWRIB",
    "state": "US"
   },
   "omm": {
    "OBJECT_NAME": "CYGFM02",
    "OBJECT_ID": "2016-078C",
    "EPOCH": "2026-07-17T21:16:52.012704",
    "MEAN_MOTION": 15.66500155,
    "ECCENTRICITY": 0.00048664,
    "INCLINATION": 34.9411,
    "RA_OF_ASC_NODE": 16.7705,
    "ARG_OF_PERICENTER": 119.2555,
    "MEAN_ANOMALY": 240.8659,
    "EPHEMERIS_TYPE": 0,
    "CLASSIFICATION_TYPE": "U",
    "NORAD_CAT_ID": 41886,
    "ELEMENT_SET_NO": 999,
    "REV_AT_EPOCH": 53398,
    "BSTAR": 0.00023945941,
    "MEAN_MOTION_DOT": 0.00025902,
    "MEAN_MOTION_DDOT": 0
   }
  },
  {
   "norad": 41891,
   "name": "CYGFM03",
   "intl": "2016-078H",
   "group": "weather",
   "gcat": {
    "class": "C",
    "category": "EOSCI",
    "owner": "LARCN/SWRIB",
    "state": "US"
   },
   "omm": {
    "OBJECT_NAME": "CYGFM03",
    "OBJECT_ID": "2016-078H",
    "EPOCH": "2026-07-17T21:14:09.948768",
    "MEAN_MOTION": 15.61657157,
    "ECCENTRICITY": 0.00043067,
    "INCLINATION": 34.9407,
    "RA_OF_ASC_NODE": 26.8882,
    "ARG_OF_PERICENTER": 97.8498,
    "MEAN_ANOMALY": 262.2717,
    "EPHEMERIS_TYPE": 0,
    "CLASSIFICATION_TYPE": "U",
    "NORAD_CAT_ID": 41891,
    "ELEMENT_SET_NO": 999,
    "REV_AT_EPOCH": 53377,
    "BSTAR": 0.00022227219,
    "MEAN_MOTION_DOT": 0.00019812,
    "MEAN_MOTION_DDOT": 0
   }
  },
  {
   "norad": 41885,
   "name": "CYGFM04",
   "intl": "2016-078B",
   "group": "weather",
   "gcat": {
    "class": "C",
    "category": "EOSCI",
    "owner": "LARCN/SWRIB",
    "state": "US"
   },
   "omm": {
    "OBJECT_NAME": "CYGFM04",
    "OBJECT_ID": "2016-078B",
    "EPOCH": "2026-07-17T21:13:01.920864",
    "MEAN_MOTION": 15.63194228,
    "ECCENTRICITY": 0.00041216,
    "INCLINATION": 34.9329,
    "RA_OF_ASC_NODE": 23.1976,
    "ARG_OF_PERICENTER": 116.7383,
    "MEAN_ANOMALY": 243.3765,
    "EPHEMERIS_TYPE": 0,
    "CLASSIFICATION_TYPE": "U",
    "NORAD_CAT_ID": 41885,
    "ELEMENT_SET_NO": 999,
    "REV_AT_EPOCH": 53380,
    "BSTAR": 0.00022258448,
    "MEAN_MOTION_DOT": 0.00021075,
    "MEAN_MOTION_DDOT": 0
   }
  }
 ]
}
